[{"OBJECT_NAME":"STARLINK-1309","OBJECT_ID":"2020-019BG","EPOCH":"2026-03-09T10:26:34.247904","MEAN_MOTION":15.54780234,"ECCENTRICITY":0.00056157,"INCLINATION":53.0666,"RA_OF_ASC_NODE":124.8394,"ARG_OF_PERICENTER":27.8152,"MEAN_ANOMALY":332.3157,"EPHEMERIS_TYPE":0,"CLASSIFICATION_TYPE":"U","NORAD_CAT_ID":45414,"ELEMENT_SET_NO":999,"REV_AT_EPOCH":32999,"BSTAR":0.0015124832,"MEAN_MOTION_DOT":0.00103315,"MEAN_MOTION_DDOT":0},{"OBJECT_NAME":"STARLINK-1420","OBJECT_ID":"2020-035AQ","EPOCH":"2026-03-10T00:00:02.999808","MEAN_MOTION":15.53743401,"ECCENTRICITY":0.00043485,"INCLINATION":53.0536,"RA_OF_ASC_NODE":20.9202,"ARG_OF_PERICENTER":112.4673,"MEAN_ANOMALY":249.9349,"EPHEMERIS_TYPE":0,"CLASSIFICATION_TYPE":"U","NORAD_CAT_ID":45695,"ELEMENT_SET_NO":999,"REV_AT_EPOCH":587,"BSTAR":0.0013975342,"MEAN_MOTION_DOT":0.00091715,"MEAN_MOTION_DDOT":0}]
